CCSDS_OMM_VERS = 2.0
CREATION_DATE  = 
ORIGINATOR     = 

OBJECT_NAME    = UNKNOWN
OBJECT_ID      = 
CENTER_NAME    = EARTH
REF_FRAME      = TEME
TIME_SYSTEM    = UTC
MEAN_ELEMENT_THEORY = SGP/SGP4

EPOCH          = 2025-10-26T22:00:15.546240
MEAN_MOTION    = 13.01982536
ECCENTRICITY   = .00370899
INCLINATION    = 90.2697
RA_OF_ASC_NODE = 15.8757
ARG_OF_PERICENTER = 180.0491
MEAN_ANOMALY   = 180.0635

EPHEMERIS_TYPE = 0
CLASSIFICATION_TYPE = U
NORAD_CAT_ID   = 270030
ELEMENT_SET_NO = 999
REV_AT_EPOCH   = 28097
BSTAR          = .14845155E-2
MEAN_MOTION_DOT = .468E-5
MEAN_MOTION_DDOT = 0

CCSDS_OMM_VERS = 2.0
CREATION_DATE  = 
ORIGINATOR     = 

OBJECT_NAME    = UNKNOWN
OBJECT_ID      = 
CENTER_NAME    = EARTH
REF_FRAME      = TEME
TIME_SYSTEM    = UTC
MEAN_ELEMENT_THEORY = SGP/SGP4

EPOCH          = 2025-10-10T11:45:47.051424
MEAN_MOTION    = 13.00100978
ECCENTRICITY   = .000822
INCLINATION    = 90.2632
RA_OF_ASC_NODE = 14.9559
ARG_OF_PERICENTER = 262.0524
MEAN_ANOMALY   = 97.9666

EPHEMERIS_TYPE = 0
CLASSIFICATION_TYPE = U
NORAD_CAT_ID   = 270031
ELEMENT_SET_NO = 999
REV_AT_EPOCH   = 27825
BSTAR          = .23693306E-2
MEAN_MOTION_DOT = .721E-5
MEAN_MOTION_DDOT = 0

CCSDS_OMM_VERS = 2.0
CREATION_DATE  = 
ORIGINATOR     = 

OBJECT_NAME    = UNKNOWN
OBJECT_ID      = 
CENTER_NAME    = EARTH
REF_FRAME      = TEME
TIME_SYSTEM    = UTC
MEAN_ELEMENT_THEORY = SGP/SGP4

EPOCH          = 2025-10-25T06:57:05.476608
MEAN_MOTION    = 11.80377742
ECCENTRICITY   = .02470092
INCLINATION    = 81.3006
RA_OF_ASC_NODE = 297.9527
ARG_OF_PERICENTER = 268.2943
MEAN_ANOMALY   = 88.9793

EPHEMERIS_TYPE = 0
CLASSIFICATION_TYPE = U
NORAD_CAT_ID   = 270032
ELEMENT_SET_NO = 999
REV_AT_EPOCH   = 25474
BSTAR          = .44408899E-2
MEAN_MOTION_DOT = .311E-5
MEAN_MOTION_DDOT = 0

CCSDS_OMM_VERS = 2.0
CREATION_DATE  = 
ORIGINATOR     = 

OBJECT_NAME    = UNKNOWN
OBJECT_ID      = 
CENTER_NAME    = EARTH
REF_FRAME      = TEME
TIME_SYSTEM    = UTC
MEAN_ELEMENT_THEORY = SGP/SGP4

EPOCH          = 2025-10-28T04:15:42.176736
MEAN_MOTION    = 13.71843814
ECCENTRICITY   = .05742794
INCLINATION    = 81.9661
RA_OF_ASC_NODE = 275.1958
ARG_OF_PERICENTER = 208.8434
MEAN_ANOMALY   = 147.9832

EPHEMERIS_TYPE = 0
CLASSIFICATION_TYPE = U
NORAD_CAT_ID   = 270033
ELEMENT_SET_NO = 999
REV_AT_EPOCH   = 29578
BSTAR          = .33973246E-3
MEAN_MOTION_DOT = .1036E-4
MEAN_MOTION_DDOT = 0

CCSDS_OMM_VERS = 2.0
CREATION_DATE  = 
ORIGINATOR     = 

OBJECT_NAME    = UNKNOWN
OBJECT_ID      = 
CENTER_NAME    = EARTH
REF_FRAME      = TEME
TIME_SYSTEM    = UTC
MEAN_ELEMENT_THEORY = SGP/SGP4

EPOCH          = 2025-10-26T00:32:00.516480
MEAN_MOTION    = 13.24866523
ECCENTRICITY   = .06424479
INCLINATION    = 99.3466
RA_OF_ASC_NODE = 217.2409
ARG_OF_PERICENTER = 38.7967
MEAN_ANOMALY   = 325.7519

EPHEMERIS_TYPE = 0
CLASSIFICATION_TYPE = U
NORAD_CAT_ID   = 270034
ELEMENT_SET_NO = 999
REV_AT_EPOCH   = 7226
BSTAR          = .1248928E-1
MEAN_MOTION_DOT = .16574E-3
MEAN_MOTION_DDOT = 0

CCSDS_OMM_VERS = 2.0
CREATION_DATE  = 
ORIGINATOR     = 

OBJECT_NAME    = UNKNOWN
OBJECT_ID      = 
CENTER_NAME    = EARTH
REF_FRAME      = TEME
TIME_SYSTEM    = UTC
MEAN_ELEMENT_THEORY = SGP/SGP4

EPOCH          = 2025-10-28T20:45:32.500800
MEAN_MOTION    = 13.99786720
ECCENTRICITY   = .0094723
INCLINATION    = 82.4449
RA_OF_ASC_NODE = 350.2309
ARG_OF_PERICENTER = 81.4540
MEAN_ANOMALY   = 279.7349

EPHEMERIS_TYPE = 0
CLASSIFICATION_TYPE = U
NORAD_CAT_ID   = 270035
ELEMENT_SET_NO = 999
REV_AT_EPOCH   = 30106
BSTAR          = .1387285E-2
MEAN_MOTION_DOT = .2128E-4
MEAN_MOTION_DDOT = 0

CCSDS_OMM_VERS = 2.0
CREATION_DATE  = 
ORIGINATOR     = 

OBJECT_NAME    = UNKNOWN
OBJECT_ID      = 
CENTER_NAME    = EARTH
REF_FRAME      = TEME
TIME_SYSTEM    = UTC
MEAN_ELEMENT_THEORY = SGP/SGP4

EPOCH          = 2025-10-20T18:54:20.481984
MEAN_MOTION    = 13.75709311
ECCENTRICITY   = .01093702
INCLINATION    = 100.3756
RA_OF_ASC_NODE = 116.6909
ARG_OF_PERICENTER = 249.6792
MEAN_ANOMALY   = 109.2574

EPHEMERIS_TYPE = 0
CLASSIFICATION_TYPE = U
NORAD_CAT_ID   = 270036
ELEMENT_SET_NO = 999
REV_AT_EPOCH   = 29569
BSTAR          = .16030528E-2
MEAN_MOTION_DOT = .1565E-4
MEAN_MOTION_DDOT = 0

CCSDS_OMM_VERS = 2.0
CREATION_DATE  = 
ORIGINATOR     = 

OBJECT_NAME    = UNKNOWN
OBJECT_ID      = 
CENTER_NAME    = EARTH
REF_FRAME      = TEME
TIME_SYSTEM    = UTC
MEAN_ELEMENT_THEORY = SGP/SGP4

EPOCH          = 2025-10-26T13:07:29.438400
MEAN_MOTION    = 12.79082666
ECCENTRICITY   = .02225236
INCLINATION    = 102.8783
RA_OF_ASC_NODE = 36.8570
ARG_OF_PERICENTER = 144.4355
MEAN_ANOMALY   = 217.1789

EPHEMERIS_TYPE = 0
CLASSIFICATION_TYPE = U
NORAD_CAT_ID   = 270038
ELEMENT_SET_NO = 999
REV_AT_EPOCH   = 27436
BSTAR          = .3560642E-1
MEAN_MOTION_DOT = .8831E-4
MEAN_MOTION_DDOT = 0

CCSDS_OMM_VERS = 2.0
CREATION_DATE  = 
ORIGINATOR     = 

OBJECT_NAME    = UNKNOWN
OBJECT_ID      = 
CENTER_NAME    = EARTH
REF_FRAME      = TEME
TIME_SYSTEM    = UTC
MEAN_ELEMENT_THEORY = SGP/SGP4

EPOCH          = 2025-10-29T03:01:59.814336
MEAN_MOTION    = 14.04127253
ECCENTRICITY   = .00155658
INCLINATION    = 82.5515
RA_OF_ASC_NODE = 75.2895
ARG_OF_PERICENTER = 161.2880
MEAN_ANOMALY   = 198.8867

EPHEMERIS_TYPE = 0
CLASSIFICATION_TYPE = U
NORAD_CAT_ID   = 270039
ELEMENT_SET_NO = 999
REV_AT_EPOCH   = 30246
BSTAR          = .2178597E-2
MEAN_MOTION_DOT = .3469E-4
MEAN_MOTION_DDOT = 0

CCSDS_OMM_VERS = 2.0
CREATION_DATE  = 
ORIGINATOR     = 

OBJECT_NAME    = UNKNOWN
OBJECT_ID      = 
CENTER_NAME    = EARTH
REF_FRAME      = TEME
TIME_SYSTEM    = UTC
MEAN_ELEMENT_THEORY = SGP/SGP4

EPOCH          = 2025-10-24T08:32:03.811488
MEAN_MOTION    = 12.53348013
ECCENTRICITY   = .00261879
INCLINATION    = 101.4178
RA_OF_ASC_NODE = 339.7844
ARG_OF_PERICENTER = 321.4818
MEAN_ANOMALY   = 38.4386

EPHEMERIS_TYPE = 0
CLASSIFICATION_TYPE = U
NORAD_CAT_ID   = 270040
ELEMENT_SET_NO = 999
REV_AT_EPOCH   = 27032
BSTAR          = .31964423E-3
MEAN_MOTION_DOT = .8E-7
MEAN_MOTION_DDOT = 0

CCSDS_OMM_VERS = 2.0
CREATION_DATE  = 
ORIGINATOR     = 

OBJECT_NAME    = UNKNOWN
OBJECT_ID      = 
CENTER_NAME    = EARTH
REF_FRAME      = TEME
TIME_SYSTEM    = UTC
MEAN_ELEMENT_THEORY = SGP/SGP4

EPOCH          = 2025-10-26T01:21:33.529248
MEAN_MOTION    = 13.95944127
ECCENTRICITY   = .02221366
INCLINATION    = 98.4935
RA_OF_ASC_NODE = 51.0074
ARG_OF_PERICENTER = 149.2659
MEAN_ANOMALY   = 212.1734

EPHEMERIS_TYPE = 0
CLASSIFICATION_TYPE = U
NORAD_CAT_ID   = 270041
ELEMENT_SET_NO = 999
REV_AT_EPOCH   = 30038
BSTAR          = .1628786E-2
MEAN_MOTION_DOT = .2705E-4
MEAN_MOTION_DDOT = 0

CCSDS_OMM_VERS = 2.0
CREATION_DATE  = 
ORIGINATOR     = 

OBJECT_NAME    = UNKNOWN
OBJECT_ID      = 
CENTER_NAME    = EARTH
REF_FRAME      = TEME
TIME_SYSTEM    = UTC
MEAN_ELEMENT_THEORY = SGP/SGP4

EPOCH          = 2025-10-18T14:16:34.825728
MEAN_MOTION    = 12.26196196
ECCENTRICITY   = .01393085
INCLINATION    = 74.0213
RA_OF_ASC_NODE = 246.1942
ARG_OF_PERICENTER = 235.9836
MEAN_ANOMALY   = 122.7905

EPHEMERIS_TYPE = 0
CLASSIFICATION_TYPE = U
NORAD_CAT_ID   = 270042
ELEMENT_SET_NO = 999
REV_AT_EPOCH   = 26388
BSTAR          = .16935739E-3
MEAN_MOTION_DOT = .4E-7
MEAN_MOTION_DDOT = 0

CCSDS_OMM_VERS = 2.0
CREATION_DATE  = 
ORIGINATOR     = 

OBJECT_NAME    = UNKNOWN
OBJECT_ID      = 
CENTER_NAME    = EARTH
REF_FRAME      = TEME
TIME_SYSTEM    = UTC
MEAN_ELEMENT_THEORY = SGP/SGP4

EPOCH          = 2025-10-26T21:00:49.846752
MEAN_MOTION    = 13.91849575
ECCENTRICITY   = .02503076
INCLINATION    = 98.9115
RA_OF_ASC_NODE = 356.6665
ARG_OF_PERICENTER = 72.5850
MEAN_ANOMALY   = 290.2511

EPHEMERIS_TYPE = 0
CLASSIFICATION_TYPE = U
NORAD_CAT_ID   = 270043
ELEMENT_SET_NO = 999
REV_AT_EPOCH   = 29901
BSTAR          = .19128812E-2
MEAN_MOTION_DOT = .3106E-4
MEAN_MOTION_DDOT = 0

CCSDS_OMM_VERS = 2.0
CREATION_DATE  = 
ORIGINATOR     = 

OBJECT_NAME    = UNKNOWN
OBJECT_ID      = 
CENTER_NAME    = EARTH
REF_FRAME      = TEME
TIME_SYSTEM    = UTC
MEAN_ELEMENT_THEORY = SGP/SGP4

EPOCH          = 2025-10-28T21:19:05.427264
MEAN_MOTION    = 13.00522948
ECCENTRICITY   = .00189983
INCLINATION    = 90.2539
RA_OF_ASC_NODE = 8.1475
ARG_OF_PERICENTER = 130.3956
MEAN_ANOMALY   = 229.8828

EPHEMERIS_TYPE = 0
CLASSIFICATION_TYPE = U
NORAD_CAT_ID   = 270044
ELEMENT_SET_NO = 999
REV_AT_EPOCH   = 28074
BSTAR          = .39756699E-2
MEAN_MOTION_DOT = .1213E-4
MEAN_MOTION_DDOT = 0

CCSDS_OMM_VERS = 2.0
CREATION_DATE  = 
ORIGINATOR     = 

OBJECT_NAME    = UNKNOWN
OBJECT_ID      = 
CENTER_NAME    = EARTH
REF_FRAME      = TEME
TIME_SYSTEM    = UTC
MEAN_ELEMENT_THEORY = SGP/SGP4

EPOCH          = 2025-10-24T11:44:27.839040
MEAN_MOTION    = 12.96353360
ECCENTRICITY   = .00390194
INCLINATION    = 90.2527
RA_OF_ASC_NODE = 8.0463
ARG_OF_PERICENTER = 35.7242
MEAN_ANOMALY   = 324.6478

EPHEMERIS_TYPE = 0
CLASSIFICATION_TYPE = U
NORAD_CAT_ID   = 270045
ELEMENT_SET_NO = 999
REV_AT_EPOCH   = 27961
BSTAR          = .30077243E-2
MEAN_MOTION_DOT = .869E-5
MEAN_MOTION_DDOT = 0

CCSDS_OMM_VERS = 2.0
CREATION_DATE  = 
ORIGINATOR     = 

OBJECT_NAME    = UNKNOWN
OBJECT_ID      = 
CENTER_NAME    = EARTH
REF_FRAME      = TEME
TIME_SYSTEM    = UTC
MEAN_ELEMENT_THEORY = SGP/SGP4

EPOCH          = 2025-10-29T03:47:46.510080
MEAN_MOTION    = 12.62567045
ECCENTRICITY   = .00585888
INCLINATION    = 73.9901
RA_OF_ASC_NODE = 107.4010
ARG_OF_PERICENTER = 180.5439
MEAN_ANOMALY   = 179.5565

EPHEMERIS_TYPE = 0
CLASSIFICATION_TYPE = U
NORAD_CAT_ID   = 270046
ELEMENT_SET_NO = 999
REV_AT_EPOCH   = 27282
BSTAR          = .50162796E-3
MEAN_MOTION_DOT = .74E-6
MEAN_MOTION_DDOT = 0

